[
    {
        "CCSDS_OMM_VERS": "3.0",
        "COMMENT": "GENERATED VIA SPACE-TRACK.ORG API",
        "CREATION_DATE": "2025-03-02T18:08:23",
        "ORIGINATOR": "18 SPCS",
        "OBJECT_NAME": "QZS-4",
        "OBJECT_ID": "2017-062A",
        "CENTER_NAME": "EARTH",
        "REF_FRAME": "TEME",
        "TIME_SYSTEM": "UTC",
        "MEAN_ELEMENT_THEORY": "SGP4",
        "EPOCH": "2025-03-02T12:05:07.869984",
        "MEAN_MOTION": "1.00281358",
        "ECCENTRICITY": "0.07490100",
        "INCLINATION": "40.3852",
        "RA_OF_ASC_NODE": "349.5035",
        "ARG_OF_PERICENTER": "269.6102",
        "MEAN_ANOMALY": "222.4841",
        "EPHEMERIS_TYPE": "0",
        "CLASSIFICATION_TYPE": "U",
        "NORAD_CAT_ID": "42965",
        "ELEMENT_SET_NO": "999",
        "REV_AT_EPOCH": "2708",
        "BSTAR": "0.00000000000000",
        "MEAN_MOTION_DOT": "-0.00000310",
        "MEAN_MOTION_DDOT": "0.0000000000000",
        "SEMIMAJOR_AXIS": "42162.049",
        "PERIOD": "1435.960",
        "APOAPSIS": "38941.893",
        "PERIAPSIS": "32625.934",
        "OBJECT_TYPE": "PAYLOAD",
        "RCS_SIZE": "LARGE",
        "COUNTRY_CODE": "JPN",
        "LAUNCH_DATE": "2017-10-09",
        "SITE": "TNSTA",
        "DECAY_DATE": null,
        "FILE": "4657142",
        "GP_ID": "282086495",
        "TLE_LINE0": "0 QZS-4",
        "TLE_LINE1": "1 42965U 17062A   25061.50356331 -.00000310  00000-0  00000-0 0  9997",
        "TLE_LINE2": "2 42965  40.3852 349.5035 0749010 269.6102 222.4841  1.00281358 27084"
    }
]